[Satellite]
VERSION=1.1
NAME=STARLINK-1372
NICKNAME=STARLINK-1372
TLE1=1 45543U 20025N   20141.58334491  .02737233  00000-0  39293-1 0  9999
TLE2=2 45543  53.0000 263.0479 0001680 299.8759 284.4898 15.51910291  1778
STATUS=0
